[{"OBJECT_NAME":"ONEWEB-0290","OBJECT_ID":"2021-075F","EPOCH":"2025-10-02T03:32:12.737760","MEAN_MOTION":13.17648504,"ECCENTRICITY":0.0001891,"INCLINATION":87.9077,"RA_OF_ASC_NODE":57.1593,"ARG_OF_PERICENTER":115.2944,"MEAN_ANOMALY":244.8383,"EPHEMERIS_TYPE":0,"CLASSIFICATION_TYPE":"U","NORAD_CAT_ID":49080,"ELEMENT_SET_NO":999,"REV_AT_EPOCH":19963,"BSTAR":6.327e-5,"MEAN_MOTION_DOT":3.7e-7,"MEAN_MOTION_DDOT":0},{"OBJECT_NAME":"ONEWEB-0291","OBJECT_ID":"2021-075G","EPOCH":"2025-10-02T03:10:21.006048","MEAN_MOTION":13.17648504,"ECCENTRICITY":0.0002089,"INCLINATION":87.9081,"RA_OF_ASC_NODE":57.1676,"ARG_OF_PERICENTER":95.8229,"MEAN_ANOMALY":264.314,"EPHEMERIS_TYPE":0,"CLASSIFICATION_TYPE":"U","NORAD_CAT_ID":49081,"ELEMENT_SET_NO":999,"REV_AT_EPOCH":19962,"BSTAR":-4.2496e-5,"MEAN_MOTION_DOT":-4.0e-8,"MEAN_MOTION_DDOT":0},{"OBJECT_NAME":"ONEWEB-0293","OBJECT_ID":"2021-075H","EPOCH":"2025-10-01T22:18:44.805600","MEAN_MOTION":13.17627576,"ECCENTRICITY":0.0001754,"INCLINATION":87.9062,"RA_OF_ASC_NODE":57.234,"ARG_OF_PERICENTER":117.025,"MEAN_ANOMALY":243.1061,"EPHEMERIS_TYPE":0,"CLASSIFICATION_TYPE":"U","NORAD_CAT_ID":49082,"ELEMENT_SET_NO":999,"REV_AT_EPOCH":19962,"BSTAR":0.012007,"MEAN_MOTION_DOT":4.676e-5,"MEAN_MOTION_DDOT":0},{"OBJECT_NAME":"ONEWEB-0294","OBJECT_ID":"2021-075J","EPOCH":"2025-10-02T02:44:22.775136","MEAN_MOTION":13.12441843,"ECCENTRICITY":0.0002078,"INCLINATION":87.8935,"RA_OF_ASC_NODE":41.9214,"ARG_OF_PERICENTER":110.0559,"MEAN_ANOMALY":250.0793,"EPHEMERIS_TYPE":0,"CLASSIFICATION_TYPE":"U","NORAD_CAT_ID":49083,"ELEMENT_SET_NO":999,"REV_AT_EPOCH":20072,"BSTAR":0.00091777,"MEAN_MOTION_DOT":3.43e-6,"MEAN_MOTION_DDOT":0},{"OBJECT_NAME":"ONEWEB-0295","OBJECT_ID":"2021-075K","EPOCH":"2025-10-01T22:17:31.534080","MEAN_MOTION":13.17650054,"ECCENTRICITY":0.0002087,"INCLINATION":87.9075,"RA_OF_ASC_NODE":57.2397,"ARG_OF_PERICENTER":93.4351,"MEAN_ANOMALY":266.7019,"EPHEMERIS_TYPE":0,"CLASSIFICATION_TYPE":"U","NORAD_CAT_ID":49084,"ELEMENT_SET_NO":999,"REV_AT_EPOCH":19958,"BSTAR":0.00015556,"MEAN_MOTION_DOT":7.3e-7,"MEAN_MOTION_DDOT":0},{"OBJECT_NAME":"ONEWEB-0296","OBJECT_ID":"2021-075L","EPOCH":"2025-10-02T02:16:22.325376","MEAN_MOTION":13.12442719,"ECCENTRICITY":0.0002232,"INCLINATION":87.8935,"RA_OF_ASC_NODE":41.9308,"ARG_OF_PERICENTER":100.6829,"MEAN_ANOMALY":259.4551,"EPHEMERIS_TYPE":0,"CLASSIFICATION_TYPE":"U","NORAD_CAT_ID":49085,"ELEMENT_SET_NO":999,"REV_AT_EPOCH":20072,"BSTAR":0.00025283,"MEAN_MOTION_DOT":1.04e-6,"MEAN_MOTION_DDOT":0},{"OBJECT_NAME":"ONEWEB-0297","OBJECT_ID":"2021-075M","EPOCH":"2025-10-02T01:10:56.802720","MEAN_MOTION":13.12440393,"ECCENTRICITY":0.0001772,"INCLINATION":87.8929,"RA_OF_ASC_NODE":41.9763,"ARG_OF_PERICENTER":96.1126,"MEAN_ANOMALY":264.0204,"EPHEMERIS_TYPE":0,"CLASSIFICATION_TYPE":"U","NORAD_CAT_ID":49086,"ELEMENT_SET_NO":999,"REV_AT_EPOCH":20132,"BSTAR":0.00060504,"MEAN_MOTION_DOT":2.3e-6,"MEAN_MOTION_DDOT":0},{"OBJECT_NAME":"ONEWEB-0298","OBJECT_ID":"2021-075N","EPOCH":"2025-10-02T03:51:50.965920","MEAN_MOTION":13.17648208,"ECCENTRICITY":0.0001669,"INCLINATION":87.9079,"RA_OF_ASC_NODE":57.1883,"ARG_OF_PERICENTER":94.003,"MEAN_ANOMALY":266.1292,"EPHEMERIS_TYPE":0,"CLASSIFICATION_TYPE":"U","NORAD_CAT_ID":49087,"ELEMENT_SET_NO":999,"REV_AT_EPOCH":19964,"BSTAR":5.5474e-5,"MEAN_MOTION_DOT":3.4e-7,"MEAN_MOTION_DDOT":0},{"OBJECT_NAME":"ONEWEB-0299","OBJECT_ID":"2021-075P","EPOCH":"2025-10-02T03:54:04.116960","MEAN_MOTION":13.17651314,"ECCENTRICITY":0.0001851,"INCLINATION":87.9082,"RA_OF_ASC_NODE":57.1453,"ARG_OF_PERICENTER":92.2696,"MEAN_ANOMALY":267.8648,"EPHEMERIS_TYPE":0,"CLASSIFICATION_TYPE":"U","NORAD_CAT_ID":49088,"ELEMENT_SET_NO":999,"REV_AT_EPOCH":19962,"BSTAR":-0.00014416,"MEAN_MOTION_DOT":-4.3e-7,"MEAN_MOTION_DDOT":0},{"OBJECT_NAME":"ONEWEB-0300","OBJECT_ID":"2021-075Q","EPOCH":"2025-10-02T02:49:02.906400","MEAN_MOTION":13.12441817,"ECCENTRICITY":0.0001466,"INCLINATION":87.8937,"RA_OF_ASC_NODE":41.917,"ARG_OF_PERICENTER":91.7649,"MEAN_ANOMALY":268.3648,"EPHEMERIS_TYPE":0,"CLASSIFICATION_TYPE":"U","NORAD_CAT_ID":49089,"ELEMENT_SET_NO":999,"REV_AT_EPOCH":20135,"BSTAR":0.00077116,"MEAN_MOTION_DOT":2.9e-6,"MEAN_MOTION_DDOT":0},{"OBJECT_NAME":"ONEWEB-0301","OBJECT_ID":"2021-075R","EPOCH":"2025-10-02T02:25:41.759328","MEAN_MOTION":13.12443318,"ECCENTRICITY":0.0001345,"INCLINATION":87.8932,"RA_OF_ASC_NODE":41.9241,"ARG_OF_PERICENTER":90.9262,"MEAN_ANOMALY":269.2021,"EPHEMERIS_TYPE":0,"CLASSIFICATION_TYPE":"U","NORAD_CAT_ID":49090,"ELEMENT_SET_NO":999,"REV_AT_EPOCH":20071,"BSTAR":0.00057985,"MEAN_MOTION_DOT":2.21e-6,"MEAN_MOTION_DDOT":0},{"OBJECT_NAME":"ONEWEB-0302","OBJECT_ID":"2021-075S","EPOCH":"2025-10-02T02:07:00.120576","MEAN_MOTION":13.12442913,"ECCENTRICITY":0.000199,"INCLINATION":87.8937,"RA_OF_ASC_NODE":41.9336,"ARG_OF_PERICENTER":105.0764,"MEAN_ANOMALY":255.0585,"EPHEMERIS_TYPE":0,"CLASSIFICATION_TYPE":"U","NORAD_CAT_ID":49091,"ELEMENT_SET_NO":999,"REV_AT_EPOCH":20069,"BSTAR":-0.00054873,"MEAN_MOTION_DOT":-1.85e-6,"MEAN_MOTION_DDOT":0},{"OBJECT_NAME":"ONEWEB-0304","OBJECT_ID":"2021-075T","EPOCH":"2025-10-02T03:17:38.160672","MEAN_MOTION":13.17648414,"ECCENTRICITY":0.0001837,"INCLINATION":87.908,"RA_OF_ASC_NODE":57.1812,"ARG_OF_PERICENTER":93.7079,"MEAN_ANOMALY":266.4262,"EPHEMERIS_TYPE":0,"CLASSIFICATION_TYPE":"U","NORAD_CAT_ID":49092,"ELEMENT_SET_NO":999,"REV_AT_EPOCH":19959,"BSTAR":5.3701e-5,"MEAN_MOTION_DOT":3.4e-7,"MEAN_MOTION_DDOT":0},{"OBJECT_NAME":"ONEWEB-0305","OBJECT_ID":"2021-075U","EPOCH":"2025-10-02T03:07:55.360704","MEAN_MOTION":13.17648355,"ECCENTRICITY":0.0002074,"INCLINATION":87.9084,"RA_OF_ASC_NODE":57.1593,"ARG_OF_PERICENTER":89.0007,"MEAN_ANOMALY":271.1362,"EPHEMERIS_TYPE":0,"CLASSIFICATION_TYPE":"U","NORAD_CAT_ID":49093,"ELEMENT_SET_NO":999,"REV_AT_EPOCH":19962,"BSTAR":1.1326e-5,"MEAN_MOTION_DOT":1.7e-7,"MEAN_MOTION_DDOT":0},{"OBJECT_NAME":"ONEWEB-0308","OBJECT_ID":"2021-075V","EPOCH":"2025-10-01T20:28:18.934752","MEAN_MOTION":13.12444071,"ECCENTRICITY":0.0001679,"INCLINATION":87.8938,"RA_OF_ASC_NODE":41.972,"ARG_OF_PERICENTER":99.0927,"MEAN_ANOMALY":261.0392,"EPHEMERIS_TYPE":0,"CLASSIFICATION_TYPE":"U","NORAD_CAT_ID":49094,"ELEMENT_SET_NO":999,"REV_AT_EPOCH":20067,"BSTAR":-0.00051966,"MEAN_MOTION_DOT":-1.74e-6,"MEAN_MOTION_DDOT":0},{"OBJECT_NAME":"ONEWEB-0309","OBJECT_ID":"2021-075W","EPOCH":"2025-10-02T03:12:45.091008","MEAN_MOTION":13.17649389,"ECCENTRICITY":0.0002014,"INCLINATION":87.9078,"RA_OF_ASC_NODE":57.1754,"ARG_OF_PERICENTER":105.3287,"MEAN_ANOMALY":254.8067,"EPHEMERIS_TYPE":0,"CLASSIFICATION_TYPE":"U","NORAD_CAT_ID":49095,"ELEMENT_SET_NO":999,"REV_AT_EPOCH":19959,"BSTAR":-5.6377e-5,"MEAN_MOTION_DOT":-9.0e-8,"MEAN_MOTION_DDOT":0},{"OBJECT_NAME":"ONEWEB-0310","OBJECT_ID":"2021-075X","EPOCH":"2025-10-01T15:19:59.975904","MEAN_MOTION":13.12443668,"ECCENTRICITY":0.00017784,"INCLINATION":87.8931,"RA_OF_ASC_NODE":42.0582,"ARG_OF_PERICENTER":101.2846,"MEAN_ANOMALY":258.8482,"EPHEMERIS_TYPE":0,"CLASSIFICATION_TYPE":"U","NORAD_CAT_ID":49096,"ELEMENT_SET_NO":999,"REV_AT_EPOCH":20127,"BSTAR":0.00060530017,"MEAN_MOTION_DOT":2.3e-6,"MEAN_MOTION_DDOT":0}]
