ONEWEB-0290             
1 49080U 21075F   25275.14736965  .00000037  00000+0  63270-4 0  9999
2 49080  87.9077  57.1593 0001891 115.2944 244.8383 13.17648504199635
ONEWEB-0291             
1 49081U 21075G   25275.13218757 -.00000004  00000+0 -42496-4 0  9996
2 49081  87.9081  57.1676 0002089  95.8229 264.3140 13.17648504199629
ONEWEB-0293             
1 49082U 21075H   25274.92968525  .00004676  00000+0  12007-1 0  9997
2 49082  87.9062  57.2340 0001754 117.0250 243.1061 13.17627576199620
ONEWEB-0294             
1 49083U 21075J   25275.11415249  .00000343  00000+0  91777-3 0  9990
2 49083  87.8935  41.9214 0002078 110.0559 250.0793 13.12441843200723
ONEWEB-0295             
1 49084U 21075K   25274.92883720  .00000073  00000+0  15556-3 0  9993
2 49084  87.9075  57.2397 0002087  93.4351 266.7019 13.17650054199583
ONEWEB-0296             
1 49085U 21075L   25275.09470284  .00000104  00000+0  25283-3 0  9993
2 49085  87.8935  41.9308 0002232 100.6829 259.4551 13.12442719200724
ONEWEB-0297             
1 49086U 21075M   25275.04926855  .00000230  00000+0  60504-3 0  9994
2 49086  87.8929  41.9763 0001772  96.1126 264.0204 13.12440393201320
ONEWEB-0298             
1 49087U 21075N   25275.16100655  .00000034  00000+0  55474-4 0  9993
2 49087  87.9079  57.1883 0001669  94.0030 266.1292 13.17648208199647
ONEWEB-0299             
1 49088U 21075P   25275.16254765 -.00000043  00000+0 -14416-3 0  9998
2 49088  87.9082  57.1453 0001851  92.2696 267.8648 13.17651314199629
ONEWEB-0300             
1 49089U 21075Q   25275.11739475  .00000290  00000+0  77116-3 0  9998
2 49089  87.8937  41.9170 0001466  91.7649 268.3648 13.12441817201359
ONEWEB-0301             
1 49090U 21075R   25275.10117777  .00000221  00000+0  57985-3 0  9990
2 49090  87.8932  41.9241 0001345  90.9262 269.2021 13.12443318200715
ONEWEB-0302             
1 49091U 21075S   25275.08819584 -.00000185  00000+0 -54873-3 0  9997
2 49091  87.8937  41.9336 0001990 105.0764 255.0585 13.12442913200692
ONEWEB-0304             
1 49092U 21075T   25275.13724723  .00000034  00000+0  53701-4 0  9995
2 49092  87.9080  57.1812 0001837  93.7079 266.4262 13.17648414199596
ONEWEB-0305             
1 49093U 21075U   25275.13050186  .00000017  00000+0  11326-4 0  9999
2 49093  87.9084  57.1593 0002074  89.0007 271.1362 13.17648355199622
ONEWEB-0308             
1 49094U 21075V   25274.85299693 -.00000174  00000+0 -51966-3 0  9995
2 49094  87.8938  41.9720 0001679  99.0927 261.0392 13.12444071200678
ONEWEB-0309             
1 49095U 21075W   25275.13385522 -.00000009  00000+0 -56377-4 0  9994
2 49095  87.9078  57.1754 0002014 105.3287 254.8067 13.17649389199596
ONEWEB-0310             
1 49096U 21075X   25274.63888861  .00000230  00000+0  60530-3 0  9992
2 49096  87.8931  42.0582 0001778 101.2846 258.8482 13.12443668201279
